{
  "norad_id": 49447,
  "name": "STARLINK-3115",
  "history": [
    {
      "epoch": "2026-03-28T19:55:49.905408",
      "apogee_km": 540.3287345071894,
      "perigee_km": 538.9631641529922,
      "latitude_deg": -53.123573086559425,
      "longitude_deg": -75.57788288011216,
      "semi_major_axis_km": 6917.782949330091,
      "eccentricity": 9.87e-05,
      "inclination_deg": 53.2169,
      "raan_deg": 133.1954,
      "arg_perigee_deg": 105.2017,
      "mean_anomaly_deg": 254.9085,
      "mean_motion_rev_day": 15.08871879
    }
  ]
}